ORBCOMM FM05 [-]        
1 25117U 97084F   23252.18346706  .00001609  00000+0  53635-3 0  9993
2 25117  45.0154 222.2836 0003338 254.1495 105.8987 14.41338017348060
ORBCOMM FM06 [+]        
1 25118U 97084G   23251.68632931  .00001596  00000+0  53305-3 0  9995
2 25118  45.0148 224.7956 0003088 269.8744 259.9705 14.41267991347965
ORBCOMM FM07 [-]        
1 25119U 97084H   23252.18850627  .00001619  00000+0  54079-3 0  9991
2 25119  45.0142 222.8282 0003342 238.9118 121.1403 14.41215386348053
ORBCOMM FM03 [-]        
1 25158U 98007B   23251.89956107  .00001280  00000+0  52625-3 0  9996
2 25158 107.9824 249.2552 0049667 297.1578  62.4501 14.31218971331332
ORBCOMM FM04 [+]        
1 25159U 98007C   23251.86306947  .00001252  00000+0  51414-3 0  9999
2 25159 107.9808 251.9532 0045150 295.2034  64.4426 14.31498047331491
ORBCOMM FM17 [-]        
1 25413U 98046A   23251.80513678  .00001020  00000+0  42598-3 0  9996
2 25413  44.9955  65.5670 0002281 198.8387 161.2375 14.32285029310273
ORBCOMM FM18 [-]        
1 25414U 98046B   23252.10634723  .00001164  00000+0  45612-3 0  9995
2 25414  44.9962 356.1571 0005349 254.3839 105.6418 14.34753300311375
ORBCOMM FM19 [+]        
1 25415U 98046C   23251.28505414  .00001410  00000+0  54373-3 0  9996
2 25415  44.9969   1.1440 0004338 240.7574 140.0680 14.34634517311054
